{"spkid": "50604327", "covariance": {"epoch": "2458248.5", "data": [["7.180329670419655E-15", "-8.033242404437795E-15", "-1.524886170422151E-12", "-2.933633848058026E-12", "1.755976847981865E-12", "-3.482808113600241E-13"], ["-8.033242404437795E-15", "8.992323338445298E-15", "1.778117477867895E-12", "3.359727370844564E-12", "-2.014706540502817E-12", "3.948661822362769E-13"], ["-1.524886170422151E-12", "1.778117477867895E-12", "1.438256551993533E-9", "1.769729049380252E-9", "-1.090215078029888E-9", "1.459671165607798E-10"], ["-2.933633848058026E-12", "3.359727370844564E-12", "1.769729049380252E-9", "7.060837943738163E-9", "-6.065203810389238E-9", "9.326152816914056E-10"], ["1.755976847981865E-12", "-2.014706540502817E-12", "-1.090215078029888E-9", "-6.065203810389238E-9", "5.442112184521922E-9", "-8.374382954184911E-10"], ["-3.482808113600241E-13", "3.948661822362769E-13", "1.459671165607798E-10", "9.326152816914056E-10", "-8.374382954184911E-10", "1.656947341748197E-10"]], "elements": [{"label": "e", "name": "e", "sigma": 8.47368259401994e-08, "value": ".7799212738058046", "title": "eccentricity", "units": null}, {"label": "q", "sigma": 9.48278616148508e-08, "name": "q", "units": "au", "title": "perihelion distance", "value": ".242163362987022"}, {"label": "tp", "title": "time of perihelion passage", "value": "2458125.099744023784", "units": "TDB", "name": "tp", "sigma": 3.79243530201048e-05}, {"sigma": 8.40287923496355e-05, "name": "om", "value": "215.0016709909147", "title": "longitude of the ascending node", "units": "deg", "label": "node"}, {"units": "deg", "value": "237.380531113229", "title": "argument of perihelion", "name": "w", "sigma": 7.37706729298434e-05, "label": "peri"}, {"units": "deg", "title": "inclination", "value": "5.808379198206001", "sigma": 1.28722466638431e-05, "name": "i", "label": "i"}], "labels": ["e", "q", "tp", "node", "peri", "i"]}, "elements": [{"label": "e", "name": "e", "sigma": "8.463E-8", "title": "eccentricity", "value": ".7799553820691885", "units": null}, {"name": "a", "sigma": "1.2746E-8", "units": "au", "value": "1.100250420571211", "title": "semi-major axis", "label": "a"}, {"label": "q", "sigma": "9.472E-8", "name": "q", "units": "au", "title": "perihelion distance", "value": ".2421041834228069"}, {"label": "i", "units": "deg", "title": "inclination; angle with respect to x-y ecliptic plane", "value": "5.803441296630751", "name": "i", "sigma": "1.2848E-5"}, {"units": "deg", "value": "214.847932425622", "title": "longitude of the ascending node", "sigma": "8.4279E-5", "name": "om", "label": "node"}, {"label": "peri", "units": "deg", "title": "argument of perihelion", "value": "237.5478827335324", "sigma": "7.4047E-5", "name": "w"}, {"sigma": "7.6097E-5", "name": "ma", "units": "deg", "title": "mean anomaly", "value": "106.4437613673614", "label": "M"}, {"label": "tp", "name": "tp", "sigma": "8.6946E-5", "title": "time of perihelion passage", "value": "2461075.861144151673", "units": "TDB"}, {"label": "period", "name": "per", "sigma": "7.325E-6", "value": "421.5370401139917", "title": "sidereal orbital period", "units": "d"}, {"name": "n", "sigma": "1.484E-8", "units": "deg/d", "title": "mean motion", "value": ".8540174782805541", "label": "n"}, {"sigma": "2.2687E-8", "name": "ad", "units": "au", "value": "1.958396657719616", "title": "aphelion distance", "label": "Q"}], "epoch": "2461200.5"}